[{"OBJECT_NAME":"STARLINK-30705","OBJECT_ID":"2023-148L","EPOCH":"2026-03-09T07:32:53.511936","MEAN_MOTION":15.30188481,"ECCENTRICITY":8.879e-5,"INCLINATION":53.1615,"RA_OF_ASC_NODE":26.1215,"ARG_OF_PERICENTER":94.163,"MEAN_ANOMALY":265.9473,"EPHEMERIS_TYPE":0,"CLASSIFICATION_TYPE":"U","NORAD_CAT_ID":57945,"ELEMENT_SET_NO":999,"REV_AT_EPOCH":13836,"BSTAR":2.4785645e-5,"MEAN_MOTION_DOT":3.75e-6,"MEAN_MOTION_DDOT":0},{"OBJECT_NAME":"STARLINK-31704","OBJECT_ID":"2024-076Y","EPOCH":"2026-03-09T22:00:01.999584","MEAN_MOTION":15.30892355,"ECCENTRICITY":0.00079744,"INCLINATION":42.9978,"RA_OF_ASC_NODE":323.2923,"ARG_OF_PERICENTER":240.5046,"MEAN_ANOMALY":200.4144,"EPHEMERIS_TYPE":0,"CLASSIFICATION_TYPE":"U","NORAD_CAT_ID":59586,"ELEMENT_SET_NO":999,"REV_AT_EPOCH":581,"BSTAR":0.0024766131,"MEAN_MOTION_DOT":0.00076042,"MEAN_MOTION_DDOT":0}]
